[{"OBJECT_NAME":"STARLINK-31615","OBJECT_ID":"2024-064R","EPOCH":"2026-03-08T05:48:26.860320","MEAN_MOTION":15.27584219,"ECCENTRICITY":0.00011088,"INCLINATION":43.0017,"RA_OF_ASC_NODE":57.4665,"ARG_OF_PERICENTER":254.627,"MEAN_ANOMALY":105.4459,"EPHEMERIS_TYPE":0,"CLASSIFICATION_TYPE":"U","NORAD_CAT_ID":59413,"ELEMENT_SET_NO":999,"REV_AT_EPOCH":10908,"BSTAR":7.4625094e-5,"MEAN_MOTION_DOT":1.792e-5,"MEAN_MOTION_DDOT":0},{"OBJECT_NAME":"FLOCK 4G-4","OBJECT_ID":"2025-009BC","EPOCH":"2026-03-09T18:04:48.344448","MEAN_MOTION":15.26803327,"ECCENTRICITY":0.00015979,"INCLINATION":97.3994,"RA_OF_ASC_NODE":150.7963,"ARG_OF_PERICENTER":343.4316,"MEAN_ANOMALY":16.687,"EPHEMERIS_TYPE":0,"CLASSIFICATION_TYPE":"U","NORAD_CAT_ID":62659,"ELEMENT_SET_NO":999,"REV_AT_EPOCH":12132,"BSTAR":0.00045294179,"MEAN_MOTION_DOT":0.00011866,"MEAN_MOTION_DDOT":0}]
